[{"OBJECT_NAME":"CS1","OBJECT_ID":"2021-088B","EPOCH":"2026-03-09T18:02:30.253920","MEAN_MOTION":15.31848439,"ECCENTRICITY":0.00141292,"INCLINATION":97.3882,"RA_OF_ASC_NODE":132.1684,"ARG_OF_PERICENTER":78.0335,"MEAN_ANOMALY":282.249,"EPHEMERIS_TYPE":0,"CLASSIFICATION_TYPE":"U","NORAD_CAT_ID":49261,"ELEMENT_SET_NO":999,"REV_AT_EPOCH":24518,"BSTAR":0.00051175576,"MEAN_MOTION_DOT":0.00015722,"MEAN_MOTION_DDOT":0},{"OBJECT_NAME":"STARLINK-33568","OBJECT_ID":"2025-015X","EPOCH":"2026-03-09T23:11:41.671392","MEAN_MOTION":15.30221638,"ECCENTRICITY":0.00011548,"INCLINATION":53.162,"RA_OF_ASC_NODE":321.1628,"ARG_OF_PERICENTER":73.7147,"MEAN_ANOMALY":286.3981,"EPHEMERIS_TYPE":0,"CLASSIFICATION_TYPE":"U","NORAD_CAT_ID":62779,"ELEMENT_SET_NO":999,"REV_AT_EPOCH":6436,"BSTAR":0.0011161631,"MEAN_MOTION_DOT":0.00032867,"MEAN_MOTION_DDOT":0}]
